#dP2024 11 13  0  0  0.00000000      96 __u+U IGS20 FIT  IAC
## 2340 259200.00000000   900.00000000 60627 0.0000000000000
+  131   C01C02C03C04C05C06C07C08C09C10C11C12C13C14C16C19C20
+        C21C22C23C24C25C26C27C28C29C30C32C33C34C35C36C37C38
+        C39C40C41C42C43C44C45C59C60C62E02E03E04E05E06E07E08
+        E09E10E11E12E13E14E15E18E19E21E24E25E26E27E29E30E31
+        E33E34E36G02G03G04G05G06G07G08G09G10G11G12G13G14G15
+        G16G17G18G19G20G21G22G23G24G25G26G27G28G29G30G31G32
+        J02J03J04J07R01R02R03R04R05R06R07R08R09R10R11R12R13
+        R14R15R16R17R18R19R20R21R22R23R24R26  0  0  0  0  0
++        16 16 16 16 16  9  9  9  9  9  9  9  9  9  9  7  7
++         7  7  7  7  7  7  7  7  7  7  7  7  7  7  7  7  8
++         8  8  7  7  7  7  7 17 16 17  4  4  4  4  4  4  4
++         4  4  4  4  4  4  4  5  4  4  4  4  4  4  4  4  4
++         4  4  4  4  4  4  4  4  4  4  4  4  4  4  4  4  3
++         4  4  4  4  4  4  4  4  4  4  4  4  4  4  4  4  3
++        10 10 10 16  7  6  6  6  6 14  6  6  6 13  6  6 14
++         6  6  6  6  6  8  7  6  6 14  6  8  0  0  0  0  0
%c M  cc GPS ccc cccc cccc cccc cccc ccccc ccccc ccccc ccccc
%c cc cc ccc ccc cccc cccc cccc cccc ccccc ccccc ccccc ccccc
%f  0.0000000  0.000000000  0.00000000000  0.000000000000000
%f  0.0000000  0.000000000  0.00000000000  0.000000000000000
%i    0    0    0    0      0      0      0      0         0
%i    0    0    0    0      0      0      0      0         0
/* INFORMATION & ANALYSIS CENTER (IAC)            RAPID DATA
/* S/V CLOCKS ARE ALIGNED TO GNSS TIME                      
/* G:C1WC2W R:C1PC2P E:C1XC5X C:C2IC6I J:C1CC2S             
/* PCV:IGS20_2317 OL/AL:FES2004  NONE     YN ORB:CoN CLK:CoN
*  2024 11 13 13  0  0.00000000
PC01 -34376.011491  24418.493864   -893.435065   -373.725939
PC02   4489.138646  41853.509469  -2049.067125    790.199783
PC03 -14763.720949  39459.110156  -1169.385943    814.648101
PC04 -39650.537217  14440.230249   -595.692795   -495.838075
PC05  21820.710366  36008.564989  -1287.082687   -214.737765
PC06  -9853.842098  40667.393862  -3502.554023    431.587575
PC07  -4363.387932  28841.127087  30625.627964   -207.690999
PC08 -19518.468150  24574.440130 -28300.645898   -783.735550
PC09  -5959.292108  41165.633725   4657.950656   -624.607155
PC10   3630.912654  31297.827912  28612.532428   -280.312068
PC11   5919.336743 -21796.241706 -16304.844633    240.633459
PC12  15248.183335  -3054.894565 -23122.956252   -249.096404
PC13 -12256.207962  25632.407167 -31086.101640     89.166378
PC14  11410.187528 -12538.080949  22179.199514   -423.726358
PC16 -12175.166358  39428.073975  -7342.128981    106.265132
PC19   -703.339134  15730.382026 -23025.158872   -964.137004
PC20 -18765.082172   8297.854352 -18902.063153   -910.156986
PC21  27317.209631   5058.944169   2749.259144   -914.951160
PC22  18979.452471  14702.528234 -14253.244340    178.478127
PC23  -7513.194213 -15252.422981 -22129.744394   -884.845678
PC24  21440.289994 -17159.714316   4855.767119    767.572440
PC25   9435.521365 -23243.159042 -12218.374991    559.839422
PC26  20354.749269  -1926.121245  18954.846988   -376.652702
PC27 -17201.784891  -7249.807335  20730.405816    395.734741
PC28 -13623.482928 -22136.466330  10162.423530    308.030723
PC29   1050.210658  26073.218327   9894.092055    361.666662
PC30 -12201.176145  12455.704804  21780.692097     25.995401
PC32 -27338.845460  -4928.212484  -2599.187517   -801.370133
PC33    765.269607 -15735.258000  23028.036237   -951.027072
PC34  11249.827882 -14270.247755 -21190.557952    563.450695
PC35  14193.246658  22043.051602  -9523.507166    209.332958
PC36  -9610.912384  23012.277674  12554.985520    220.584844
PC37 -20329.355049   1273.425782 -19086.008701   -893.125176
PC38 -24615.281922  26309.044520 -21995.848466    191.016733
PC39 -12271.305320  38405.618099 -11854.426260    -10.312748
PC40  -7903.178090  23510.270271  34174.793314   -102.311534
PC41 -18163.973702 -14957.560432  15040.101291   -890.369922
PC42  20320.980179  -7243.056197  17751.376871   -514.229449
PC43   -273.420857 -25777.518606 -10713.408312     92.078816
PC44  17623.407266   6645.702088 -20593.573954    651.165857
PC45   6840.965533  15610.868446  22091.900973   -166.592900
PC59 -32285.806926  27065.817811  -1811.132231     -0.924454
PC60   7246.654673  41501.105990  -1689.293838      0.480433
PC62 -39627.908404  14401.642811   1138.062960      0.203571
PE02   4479.226427 -17376.895836 -23542.521854    174.455760
PE03  -4806.937767 -23697.079787  17056.643028   -153.214558
PE04  19693.606919  22089.498580    603.630393    -81.325946
PE05  12563.362550 -11338.207816  24280.667720   4801.404555
PE06  22908.228693  15942.745686   9826.039190    -46.999151
PE07 -22755.595492  -8016.755912 -17147.676570   -152.632643
PE08 -19300.458503 -22436.786271    128.835062   -367.246142
PE09  22692.199212   8180.788867  17155.614638   -661.973995
PE10  13705.257185   8855.866568 -24694.376620   -669.629031
PE11  17375.713134  -3048.758339 -23771.485128    796.505681
PE12   8640.387402  17976.650937 -21863.361167  -1293.953334
PE13 -17183.389285   2409.822567  23992.294883    -26.766629
PE14  25167.474862   3853.745623 -18904.673425    374.325977
PE15  -8131.908657 -18592.202129  21563.036963   -138.893235
PE18 -13902.235606   8945.795130  19149.420990    768.297752
PE19   3080.935447  23020.332631 -18348.142102    928.097326
PE21 -23293.312115  13226.892739  12598.985744   -628.099371
PE24  28924.876671   -986.776390   6136.479812  -1097.375938
PE25  23600.733195 -13019.114070 -12222.410971     11.182043
PE26 -15935.567585  21928.354007  11911.711430   -212.769565
PE27 -28950.578501   1119.321546  -6098.230820   -503.069021
PE29 -12423.349866  11752.147999 -24169.491422    -45.361574
PE30 -17528.354285 -11543.172613 -20890.394973   -921.156241
PE31  17449.870957  11500.161375  20965.417166    -42.789766
PE33  -5864.638153  28375.486464  -6070.224602     16.125859
PE34   5499.112994 -28341.319934   6505.529211   -145.708077
PE36  16029.118348 -21585.901765 -12372.562755   -310.591623
PG02 -13884.725942  16690.893678  15522.218764   -315.508713
PG03 -20769.319939  12697.332766 -10654.611519    598.665819
PG04 -10682.979154  10679.357960 -21829.810751    478.753132
PG05  25726.846628  -4530.271866  -5167.830606   -192.868829
PG06   7218.539465  17930.539277 -18093.146274   -111.422312
PG07  -6027.794381  25600.436484   1151.494163    -20.423406
PG08 -19132.913049    253.101557  18481.197778    412.389247
PG09  -1155.758283  17905.779953 -19653.131381    441.799668
PG10 -10395.577356 -12000.612852  21575.326510   -194.248200
PG11  14494.252477   4184.805768 -21819.676458   -749.872109
PG12  23733.862506  -9694.743661  -7131.642773   -551.790327
PG13  19792.417068   9541.452195  14857.334936    685.843294
PG14   6143.115132  14467.021449  21471.053056    538.871431
PG15  18643.213505  -3013.803257  18212.942347    227.280660
PG16 -25223.645960  -2020.310514  -9135.207379   -129.485837
PG17  11676.767578  22250.947591   8708.477180    560.249517
PG18   5525.841198 -25714.120530   2703.634515   -660.273873
PG19  17838.035278  19920.145215  -1911.559856    562.254271
PG20  21399.297387   1946.163887 -15438.097981    368.777006
PG21 -15340.323948   9991.470015  19224.387612     97.558780
PG22  13813.760105  11635.256024  19768.731239    -79.073039
PG23   4999.798555 -15878.631320  20673.230126    362.358277
PG24  14279.256688 -15237.312700  15715.352221   -480.482842
PG25  12696.428626 -16265.631430 -16926.287070    499.033034
PG26 -18457.616467  -7514.299165 -17908.984542     27.593871
PG27 -21810.887625 -10493.401227  11119.487235    -34.721211
PG28  -7129.179776 -19655.857208 -16393.774711   -477.616129
PG29   3461.564473 -17100.090305 -20031.816490   -564.102152
PG30   2096.342434  23959.312303  11118.368123   -282.791558
PG31 -13153.243026  -9077.058712 -21405.916274   -221.834814
PG32 -15287.549106 -21022.082214   6191.090440   -574.300885
PJ02 -30127.434910  24158.080699  22069.114076      0.396773
PJ03 -29411.962829  26625.653155  19382.600266     -6.592953
PJ04 -27840.717852  19126.119962 -20189.272433     21.675305
PJ07 -25401.165362  33660.963446     30.507536     -0.016569
PR01  16050.771112  -3296.141056  19547.193130    104.283024
PR02   -381.963784 -11790.782350  22665.616711 999999.999999
PR03 -16875.949684 -14266.420006  12843.983631    111.313091
PR04 -23535.152218  -9167.169808  -3629.416605    263.785630
PR05 -17850.099259    858.303422 -18209.403738    140.644240
PR06   2107.525850  12295.023559 -22261.231997   -188.757109
PR07  17147.785255  14180.611471 -12380.731654     94.902601
PR08  23617.538271   8723.110443   4009.034547     -6.264591
PR09 -11262.070241  17706.153649  14459.036827    220.305539
PR10   2010.374627  11926.587308  22457.501926   -243.536625
PR11  16677.727961   -860.164738  19296.447736      7.019955
PR12  21275.314107 -13806.930674   2675.230952     47.187396
PR13  13711.216055 -17580.921519 -12404.171609    -53.447993
PR14  -4053.740837 -10746.297771 -22768.651362     27.222854
PR15 -17750.351866   2034.239596 -18187.431348     74.162636
PR16 -21232.922564  13817.029673  -2821.142252     30.767055
PR17  -6730.175878 -22379.870818  10184.285108    139.490429
PR18 -10475.344197  -9024.746847  21469.221699    171.675814
PR19  -9790.715068   6901.371048  22529.805995   -298.294635
PR20  -2722.028914  23910.495146   8425.110808   -121.887493
PR21   6092.951665  22996.223512  -9240.302969   -150.953539
PR22  10762.669703   7908.337770 -21698.457877     -8.907802
PR23   9088.825166  -9993.455082 -21635.627712   -138.407930
PR24   1466.146778 -24221.224736  -7804.189634    -79.953924
PR26  23592.910631   9474.886683   2181.020885   -133.547259
EOF
